{
  "norad_id": 63399,
  "name": "STARLINK-33531",
  "history": [
    {
      "epoch": "2026-03-28T17:38:45.233664Z",
      "apogee_km": 484.68675929291294,
      "perigee_km": 481.3798124385312,
      "latitude_deg": -1.53424500386147e-06,
      "longitude_deg": -91.39100238831621,
      "height_km": 482.276144178365,
      "semi_major_axis_km": 6861.170285865722,
      "eccentricity": 0.00024099,
      "inclination_deg": 42.9965,
      "raan_deg": 359.4489,
      "arg_perigee_deg": 71.3211,
      "mean_anomaly_deg": 288.7902,
      "mean_motion_rev_day": 15.2758528
    },
    {
      "epoch": "2026-03-28T23:55:22.944576Z",
      "apogee_km": 483.8843464058755,
      "perigee_km": 482.398193532601,
      "latitude_deg": -1.0325564812366213e-05,
      "longitude_deg": 172.71376627745315,
      "height_km": 482.99101024068125,
      "semi_major_axis_km": 6861.278269969238,
      "eccentricity": 0.0001083,
      "inclination_deg": 43.0035,
      "raan_deg": 357.9686,
      "arg_perigee_deg": 264.3677,
      "mean_anomaly_deg": 95.7051,
      "mean_motion_rev_day": 15.27549218
    }
  ]
}